NORAD_CAT_ID,OBJECT_NAME,OBJECT_TYPE,EPOCH,MEAN_MOTION,ECCENTRICITY,INCLINATION,RA_OF_ASC_NODE,ARG_OF_PERICENTER,MEAN_ANOMALY,BSTAR,MEAN_MOTION_DOT,MEAN_MOTION_DDOT,TLE_LINE0,TLE_LINE1,TLE_LINE2,SEMIMAJOR_AXIS,PERIOD,APOGEE,PERIGEE,DECAYED
53412.0,STARLINK-4496,PAYLOAD,2023-02-20 11:13:50,15.08853932,0.0001501,53.2163,71.5636,85.5248,274.5916,0.00017996,2.578e-05,0.0,0 STARLINK-4496,1 53412U 22097AA  23051.46794227  .00002578  00000-0  17996-3 0  9994,2 53412  53.2163  71.5636 0001501  85.5248 274.5916 15.08853932 30599,6917.838,95.437,540.741,538.664,0.0
53412.0,STARLINK-4496,PAYLOAD,2023-02-21 06:18:28,15.08842267,0.0001506,53.2158,67.9955,86.4252,273.6913,5.5804e-05,6e-06,0.0,0 STARLINK-4496,1 53412U 22097AA  23052.26282415  .00000600  00000-0  55804-4 0  9999,2 53412  53.2158  67.9955 0001506  86.4252 273.6913 15.08842267 30222,6917.873,95.437,540.78,538.697,0.0
53412.0,STARLINK-4496,PAYLOAD,2023-02-21 12:39:59,15.08855018,0.000136,53.2166,66.806,90.5637,269.5511,0.00025245,3.734e-05,0.0,0 STARLINK-4496,1 53412U 22097AA  23052.52777752  .00003734  00000-0  25245-3 0  9997,2 53412  53.2166  66.8060 0001360  90.5637 269.5511 15.08855018 30267,6917.834,95.437,540.64,538.759,0.0
53412.0,STARLINK-4496,PAYLOAD,2023-02-21 17:26:10,15.08832441,0.0001171,53.2175,65.9143,114.1192,245.9923,-0.00011001,-2.038e-05,0.0,0 STARLINK-4496,1 53412U 22097AA  23052.72650607 -.00002038  00000-0 -11001-3 0  9991,2 53412  53.2175  65.9143 0001171 114.1192 245.9923 15.08832441 30291,6917.903,95.438,540.579,538.958,0.0
53412.0,STARLINK-4496,PAYLOAD,2023-02-22 09:20:01,15.08848409,0.0001388,53.2164,62.9387,97.327,262.788,0.00052266,8.042e-05,0.0,0 STARLINK-4496,1 53412U 22097AA  23053.38890499  .00008042  00000-0  52266-3 0  9996,2 53412  53.2164  62.9387 0001388  97.3270 262.7880 15.08848409 30396,6917.855,95.437,540.68,538.759,0.0
53412.0,STARLINK-4496,PAYLOAD,2023-02-22 12:30:47,15.08855541,0.0001213,53.2167,62.3448,108.4155,251.6969,0.00068873,0.00010695,0.0,0 STARLINK-4496,1 53412U 22097AA  23053.52138243  .00010695  00000-0  68873-3 0  9992,2 53412  53.2167  62.3448 0001213 108.4155 251.6969 15.08855541 30901,6917.833,95.437,540.537,538.859,0.0
53412.0,STARLINK-4496,PAYLOAD,2023-02-22 17:16:57,15.08832491,0.0001288,53.2168,61.453,102.2319,257.8818,-5.0126e-05,-1.085e-05,0.0,0 STARLINK-4496,1 53412U 22097AA  23053.72010787 -.00001085  00000-0 -50126-4 0  9994,2 53412  53.2168  61.4530 0001288 102.2319 257.8818 15.08832491 30449,6917.903,95.438,540.659,538.877,0.0
53412.0,STARLINK-4496,PAYLOAD,2023-02-23 12:21:35,15.08850486,0.0001252,53.2167,57.8852,106.807,253.306,0.00089532,0.00013994,0.0,0 STARLINK-4496,1 53412U 22097AA  23054.51498916  .00013994  00000-0  89532-3 0  9998,2 53412  53.2167  57.8852 0001252 106.8070 253.3060 15.08850486 30566,6917.848,95.437,540.579,538.847,0.0
53412.0,STARLINK-4496,PAYLOAD,2023-02-23 17:07:44,15.08845772,0.0001273,53.2166,56.9924,94.7261,265.3876,0.00084446,0.00013179,0.0,0 STARLINK-4496,1 53412U 22097AA  23054.71371179  .00013179  00000-0  84446-3 0  9995,2 53412  53.2166  56.9924 0001273  94.7261 265.3876 15.08845772 31083,6917.863,95.437,540.608,538.847,0.0
53412.0,STARLINK-4496,PAYLOAD,2023-02-23 23:29:17,15.0884701,0.0001295,53.2168,55.8028,102.5454,257.5683,0.00072688,0.00011301,0.0,0 STARLINK-4496,1 53412U 22097AA  23054.97867094  .00011301  00000-0  72688-3 0  9999,2 53412  53.2168  55.8028 0001295 102.5454 257.5683 15.08847010 30630,6917.859,95.437,540.62,538.828,0.0
53412.0,STARLINK-4496,PAYLOAD,2023-02-24 12:12:21,15.08861136,0.0001267,53.2168,53.4238,97.5253,262.5883,0.00075286,0.00011721,0.0,0 STARLINK-4496,1 53412U 22097AA  23055.50858500  .00011721  00000-0  75286-3 0  9994,2 53412  53.2168  53.4238 0001267  97.5253 262.5883 15.08861136 31203,6917.816,95.436,540.557,538.804,0.0
53412.0,STARLINK-4496,PAYLOAD,2023-02-24 16:58:31,15.08829217,0.0001204,53.2167,52.5321,88.9342,271.1788,-0.0003515,-5.876e-05,0.0,0 STARLINK-4496,1 53412U 22097AA  23055.70731185 -.00005876  00000-0 -35150-3 0  9997,2 53412  53.2167  52.5321 0001204  88.9342 271.1788 15.08829217 30741,6917.913,95.438,540.611,538.945,0.0
53412.0,STARLINK-4496,PAYLOAD,2023-02-25 12:03:09,15.08841509,0.0001297,53.2171,48.9636,85.1888,274.9252,0.00061329,9.486e-05,0.0,0 STARLINK-4496,1 53412U 22097AA  23056.50219440  .00009486  00000-0  61329-3 0  9997,2 53412  53.2171  48.9636 0001297  85.1888 274.9252 15.08841509 30868,6917.876,95.437,540.638,538.844,0.0
53412.0,STARLINK-4496,PAYLOAD,2023-02-25 16:49:19,15.08841293,0.0001422,53.2175,48.0713,83.5822,276.5332,0.00066527,0.00010316,0.0,0 STARLINK-4496,1 53412U 22097AA  23056.70091596  .00010316  00000-0  66527-3 0  9998,2 53412  53.2175  48.0713 0001422  83.5822 276.5332 15.08841293 31384,6917.876,95.437,540.725,538.758,0.0
53412.0,STARLINK-4496,PAYLOAD,2023-02-26 10:18:32,15.08875918,0.000124,53.2174,44.8002,85.7896,274.3238,0.0013834,0.00021819,0.0,0 STARLINK-4496,1 53412U 22097AA  23057.42954600  .00021819  00000-0  13834-2 0  9994,2 53412  53.2174  44.8002 0001240  85.7896 274.3238 15.08875918 31002,6917.771,95.435,540.493,538.778,0.0
53412.0,STARLINK-4496,PAYLOAD,2023-02-26 16:40:05,15.08850055,0.0001116,53.2188,43.6106,97.1101,263.0019,0.00021739,3.175e-05,0.0,0 STARLINK-4496,1 53412U 22097AA  23057.69450892  .00003175  00000-0  21739-3 0  9996,2 53412  53.2188  43.6106 0001116  97.1101 263.0019 15.08850055 31048,6917.85,95.437,540.487,538.943,0.0
53412.0,STARLINK-4496,PAYLOAD,2023-02-27 10:09:20,15.08861882,0.0001458,53.2189,40.3403,104.1825,255.9329,0.0011689,0.00018375,0.0,0 STARLINK-4496,1 53412U 22097AA  23058.42314849  .00018375  00000-0  11689-2 0  9999,2 53412  53.2189  40.3403 0001458 104.1825 255.9329 15.08861882 31644,6917.814,95.436,540.687,538.67,0.0
53412.0,STARLINK-4496,PAYLOAD,2023-02-28 10:00:06,15.08879468,0.0001785,53.2182,35.8801,88.5543,271.5654,0.001787,0.00028298,0.0,0 STARLINK-4496,1 53412U 22097AA  23059.41674478  .00028298  00000-0  17870-2 0  9999,2 53412  53.2182  35.8801 0001785  88.5543 271.5654 15.08879468 31793,6917.76,95.435,540.86,538.39,0.0
53412.0,STARLINK-4496,PAYLOAD,2023-03-01 05:04:46,15.08806426,7.14e-05,53.2186,32.3148,108.1887,251.9183,0.0018303,0.00028934,0.0,0 STARLINK-4496,1 53412U 22097AA  23060.21164756  .00028934  00000-0  18303-2 0  9991,2 53412  53.2186  32.3148 0000714 108.1887 251.9183 15.08806426 31427,6917.983,95.44,540.342,539.354,0.0
53412.0,STARLINK-4496,PAYLOAD,2023-03-01 09:50:56,15.08820277,6.53e-05,53.2183,31.4217,107.0145,253.0919,0.0019771,0.00031301,0.0,0 STARLINK-4496,1 53412U 22097AA  23060.41037077  .00031301  00000-0  19771-2 0  9990,2 53412  53.2183  31.4217 0000653 107.0145 253.0919 15.08820277 31945,6917.941,95.439,540.257,539.354,0.0
53412.0,STARLINK-4496,PAYLOAD,2023-03-02 03:20:09,15.08875579,5.26e-05,53.2178,28.1498,104.4524,255.6526,0.002117,0.00033598,0.0,0 STARLINK-4496,1 53412U 22097AA  23061.13900411  .00033598  00000-0  21170-2 0  9997,2 53412  53.2178  28.1498 0000526 104.4524 255.6526 15.08875579 31569,6917.772,95.435,540.001,539.273,0.0
53412.0,STARLINK-4496,PAYLOAD,2023-03-02 08:06:18,15.08891311,5.24e-05,53.2178,27.2576,102.1965,257.9086,0.0021876,0.00034749,0.0,0 STARLINK-4496,1 53412U 22097AA  23061.33771790  .00034749  00000-0  21876-2 0  9997,2 53412  53.2178  27.2576 0000524 102.1965 257.9086 15.08891311 32084,6917.724,95.434,539.951,539.226,0.0
53412.0,STARLINK-4496,PAYLOAD,2023-03-03 06:21:41,15.08897824,6.99e-05,53.2175,23.0944,124.3881,235.7177,0.0017346,0.0002747,0.0,0 STARLINK-4496,1 53412U 22097AA  23062.26506315  .00027470  00000-0  17346-2 0  9999,2 53412  53.2175  23.0944 0000699 124.3881 235.7177 15.08897824 31731,6917.704,95.434,540.052,539.085,0.0
53412.0,STARLINK-4496,PAYLOAD,2023-03-04 04:37:04,15.08879826,9.31e-05,53.2179,18.9323,119.3708,240.7377,0.0020462,0.00032463,0.0,0 STARLINK-4496,1 53412U 22097AA  23063.19241839  .00032463  00000-0  20462-2 0  9990,2 53412  53.2179  18.9323 0000931 119.3708 240.7377 15.08879826 31875,6917.759,95.435,540.268,538.98,0.0
53412.0,STARLINK-4496,PAYLOAD,2023-03-04 20:30:57,15.08834913,0.0001389,53.2191,15.9574,104.3315,255.7831,0.0022084,0.00035029,0.0,0 STARLINK-4496,1 53412U 22097AA  23063.85482974  .00035029  00000-0  22084-2 0  9993,2 53412  53.2191  15.9574 0001389 104.3315 255.7831 15.08834913 31970,6917.896,95.438,540.722,538.8,0.0
53412.0,STARLINK-4496,PAYLOAD,2023-03-05 04:27:53,15.08833771,0.0001104,53.2195,14.469,92.4715,267.6404,0.0010604,0.00016626,0.0,0 STARLINK-4496,1 53412U 22097AA  23064.18603295  .00016626  00000-0  10604-2 0  9998,2 53412  53.2195  14.4690 0001104  92.4715 267.6404 15.08833771 32029,6917.899,95.438,540.528,539.001,0.0
53412.0,STARLINK-4496,PAYLOAD,2023-03-06 20:12:31,15.08843458,0.0001183,53.2195,7.0369,71.1373,288.9747,0.00036154,5.471e-05,0.0,0 STARLINK-4496,1 53412U 22097AA  23065.84203253  .00005471  00000-0  36154-3 0  9997,2 53412  53.2195   7.0369 0001183  71.1373 288.9747 15.08843458 32277,6917.87,95.437,540.553,538.916,0.0
53412.0,STARLINK-4496,PAYLOAD,2023-03-07 02:34:04,15.08836112,0.0001284,53.22,5.847,67.5529,292.5599,0.00036632,5.546e-05,0.0,0 STARLINK-4496,1 53412U 22097AA  23066.10699504  .00005546  00000-0  36632-3 0  9999,2 53412  53.2200   5.8470 0001284  67.5529 292.5599 15.08836112 32801,6917.892,95.438,540.646,538.869,0.0
53412.0,STARLINK-4496,PAYLOAD,2023-03-08 02:24:52,15.08844504,0.000139,53.2183,1.3881,80.6678,279.4471,0.0015966,0.00025216,0.0,0 STARLINK-4496,1 53412U 22097AA  23067.10060581  .00025216  00000-0  15966-2 0  9999,2 53412  53.2183   1.3881 0001390  80.6678 279.4471 15.08844504 32466,6917.867,95.437,540.693,538.77,0.0
53412.0,STARLINK-4496,PAYLOAD,2023-03-08 19:54:06,15.08847851,0.0001553,53.2192,358.1153,77.9655,282.1511,0.00072402,0.00011256,0.0,0 STARLINK-4496,1 53412U 22097AA  23067.82924361  .00011256  00000-0  72402-3 0  9991,2 53412  53.2192 358.1153 0001553  77.9655 282.1511 15.08847851 33067,6917.856,95.437,540.796,538.647,0.0
